CZ-2C R/B               
1 54039U 22132E   26026.48373890  .00044324  00000+0  58398-3 0  9991
2 54039  97.2956  28.6472 0016682 243.7409 116.2133 15.58145345183798
GSLV R/B                
1 54149U 22138AN  26026.66399097  .00004558  00000+0  39811-3 0  9990
2 54149  87.3845 180.4266 0019809 308.2478  51.6970 14.96435566177648
XRISM                   
1 57800U 23137A   26026.83161483  .00008398  00000+0  48533-3 0  9999
2 57800  31.0009 194.2880 0008074 339.9094  20.1225 15.10942212131456
ACS3                    
1 59588U 24077B   26026.85244657  .00025637  00000+0  21358-1 0  9994
2 59588  97.2311 337.3662 0048776 214.7916 145.0055 13.87806112 88397
SZ-21 MODULE            
1 66515U 25246C   26026.56190754  .00037546  00000+0  36755-3 0  9998
2 66515  41.4753 102.0620 0003291 241.2608 118.7902 15.65368052 11469
